#cP2022  3  4  0  0  0.00000000      96 ORBIT   JGS FIT  QSS
## 2199 432000.00000000   900.00000000 59642 0.0000000000000
+   28   G01G02G03G05G06G07G08G09G10G12G15G16G17G19G20G21G24
+        G25G26G27G29G30G31G32J01J02J03J07  0  0  0  0  0  0
+          0  0  0  0  0  0  0  0  0  0  0  0  0  0  0  0  0
+          0  0  0  0  0  0  0  0  0  0  0  0  0  0  0  0  0
+          0  0  0  0  0  0  0  0  0  0  0  0  0  0  0  0  0
++         3  3  3  3  2  3  3  3  3  3  3  3  3  2  3  3  3
++         3  3  3  3  3  3  3  5  5  5  9  0  0  0  0  0  0
++         0  0  0  0  0  0  0  0  0  0  0  0  0  0  0  0  0
++         0  0  0  0  0  0  0  0  0  0  0  0  0  0  0  0  0
++         0  0  0  0  0  0  0  0  0  0  0  0  0  0  0  0  0
%c M  cc QZS ccc cccc cccc cccc cccc ccccc ccccc ccccc ccccc
%c cc cc ccc ccc cccc cccc cccc cccc ccccc ccccc ccccc ccccc
%f  1.2500000  1.025000000  0.00000000000  0.000000000000000
%f  0.0000000  0.000000000  0.00000000000  0.000000000000000
%i    0    0    0    0      0      0      0      0         0
%i    0    0    0    0      0      0      0      0         0
/* PROGRAM: POCSEL v.785, DATE: 2022/03/05 17:05:31 UTC     
/* Comment line1                                            
/* Comment line2                                            
/*                                                          
*  2022  3  4  6  0  0.00000000
PG01 -10256.408384  20173.324662 -13890.363731    417.352256 15 11 12 143       
PG02  21051.603447 -15021.742024  -5686.936972   -651.791718 12 11 15 143       
PG03  -1001.175203  15409.872523 -21723.752652   -147.700384 16  6 12 143       
PG05  17472.499178  -7848.660158  18302.563451    -73.443507 15 12  9 143       
PG06  19263.291342   -270.137085 -18250.195227    219.887270  8 14 14 143       
PG07   5831.383902  15015.833846  21433.658324    314.065623 14 14  7 143       
PG08  -7568.342812  19529.079249  16092.581601    -58.470363 13 11 14 142       
PG09   7466.750612  25200.887186   3627.277135   -351.536069 12 13 14 143       
PG10 -23541.357265 -11856.862577   4513.129112   -336.679224  6 13 15 143       
PG12   5354.364275 -14188.141609 -22074.467552   -179.638286 16  9 11 143       
PG15   5270.483537 -20867.183639  14950.196437    -79.453822 13 10 14 143       
PG16 -20964.166624   2323.294360  16149.019322   -476.547799 15 14 11 143       
PG17  12884.306446  15865.455523 -16504.839119    582.689247  7 14  9 143       
PG19  14636.823489   8089.787432 -20939.456607    126.456472  6 14  5 143       
PG20  23775.682684  -3451.160611  11053.210712    516.452747 14 13 13 143       
PG21 -17122.455368  19526.204462  -2835.521113    158.918537 14  6 14 142       
PG24  12162.468887 -21540.011862  -9389.980107    270.902197 15  9 14 143       
PG25  -9068.994702 -17160.377367 -18539.000364    293.532977 15 10 14 144       
PG26 -25882.840403  -3926.231306   5294.796587    187.985914 12 14 14 143       
PG27 -13167.092604   8446.759856  21201.097857    141.775240 12 14 12 143       
PG29  -3760.278619 -26195.976962   1820.079053   -487.190745 13 13 15 143       
PG30  13756.118703   8822.302494  21041.848746   -516.758265 12 14 12 143       
PG31 -21108.590757   1946.740089 -16409.679455   -167.355861  6 14 14 143       
PG32 -15228.665180 -11484.283694 -18426.526182    -78.170521  6 15  8 144       
PJ01 -21306.353542  20367.015795 -25655.250364    217.561577 15 15 12 143       
PJ02 -29891.957106  21698.015839  25286.872709     -1.724810 17 14 12 143       
PJ03 -30747.559744  26605.323562  16261.851887     -0.796959 16 15 14 143       
PJ07 -25405.041450  33642.017736     -4.235888      0.043970 28 27  8 143       
*  2022  3  4  6 15  0.00000000
PG01 -11434.415162  20981.782429 -11489.331779    417.343958 15 10 13 143       
PG02  20607.881579 -14225.691437  -8389.428722   -651.792155 11 12 14 143       
PG03  -3357.013015  14648.452491 -22004.090649   -147.715925 15  6 11 143       
PG05  19375.581847  -7148.372526  16624.464733    -73.444908 15 12 10 143       
PG06  17691.878765   1240.400116 -19728.504336    219.898472  9 14 13 143       
PG07   4014.727032  16498.899726  20691.569486    314.067360 14 14  6 143       
PG08  -8172.434724  17655.681766  17890.728251    -58.470643 12 11 13 142       
PG09   7256.542280  25516.184901    796.773468   -351.534428 12 12 14 143       
PG10 -22863.117617 -11835.488597   7269.737896   -336.689171  7 13 15 143       
PG12   7625.242491 -13239.708186 -21983.373141   -179.643324 16  9  9 143       
PG15   6125.000232 -19147.508010  16793.615452    -79.451262 13 10 13 143       
PG16 -22516.899163   1490.151804  14100.278092   -476.552017 14 13 12 143       
PG17  12991.625358  17710.387871 -14467.125522    582.693613  7 13 10 143       
PG19  14791.232812  10354.982037 -19804.010312    126.460908  6 14  6 143       
PG20  24843.578378  -2977.210282   8536.341682    516.452232 14 13 13 143       
PG21 -17510.423405  19479.757217     51.050301    158.919327 13  7 14 142       
PG24  13026.552424 -21962.739362  -6774.721594    270.899625 15  8 14 143       
PG25  -7003.368863 -16602.289833 -19888.901227    293.537621 15  9 14 143       
PG26 -26245.525847  -4327.467260   2550.257424    187.988677 11 14 14 143       
PG27 -13729.233661   6011.349844  21699.916993    141.787718 11 14 11 143       
PG29  -3569.112793 -26268.666253  -1080.390015   -487.194985 13 12 15 143       
PG30  11940.768225  10422.192387  21394.547116   -516.760172 12 14 11 143       
PG31 -19719.397857    586.790351 -18123.125428   -167.357408  7 14 14 143       
PG32 -15512.919724 -13502.110241 -16775.572825    -78.176951  7 14  9 144       
PJ01 -21744.402212  19386.391564 -25990.422267    217.543313 15 15 12 143       
PJ02 -30268.169893  22113.752302  24253.372562     -1.725123 17 14 11 143       
PJ03 -30107.551577  26678.891835  17721.495820     -0.797215 16 15 14 143       
PJ07 -25406.089688  33641.692673     -7.761547      0.044011 28 27  8 143       
*  2022  3  4  6 30  0.00000000
PG01 -12366.090147  21655.725762  -8889.560312    417.335649 14 10 13 143       
PG02  20013.054217 -13173.275102 -10944.980578   -651.792723 10 12 14 143       
PG03  -5761.816666  14013.020903 -21909.464462   -147.731565 15  6  9 143       
PG05  21108.837178  -6593.984802  14658.708135    -73.445770 14 11 11 143       
PG06  16101.833479   2942.600125 -20866.111967    219.909754  9 14 12 143       
PG07   2344.221175  18004.387601  19601.616911    314.069981 14 13  5 143       
PG08  -8924.509728  15638.688437  19376.488155    -58.472019 12 11 12 142       
PG09   6974.029855  25532.921394  -2047.482474   -351.532747 12 11 14 143       
PG10 -21892.168243 -11773.812516   9903.891439   -336.699093  8 12 14 143       
PG12   9916.483893 -12425.333986 -21522.875934   -179.648515 15  9  8 143       
PG15   7131.059284 -17288.629508  18335.809059    -79.448809 13 10 12 143       
PG16 -23878.857139    829.418500  11810.178599   -476.556287 14 13 12 143       
PG17  13150.018006  19299.826347 -12173.001186    582.698138  7 13 10 143       
PG19  15048.676700  12463.978336 -18336.802986    126.465426  6 13  7 143       
PG20  25641.079910  -2586.655716   5870.508038    516.452526 13 12 13 143       
PG21 -17680.355347  19203.775681   2936.776673    158.919218 13  8 14 142       
PG24  13675.516200 -22194.836322  -4041.017323    270.896997 14  8 14 143       
PG25  -4782.540197 -16120.074202 -20907.032826    293.542333 15  9 13 144       
PG26 -26324.223845  -4645.086025   -237.396578    187.991422 10 13 14 143       
PG27 -14428.787375   3578.915139  21817.358192    141.800178 11 14  9 143       
PG29  -3320.630355 -26029.140805  -3962.209282   -487.199320 12 11 15 143       
PG30  10189.538905  12123.083418  21381.818668   -516.762049 12 14  9 143       
PG31 -18275.386919   -966.677695 -19532.592694   -167.358956  8 14 13 143       
PG32 -15847.077521 -15304.235094 -14835.267546    -78.183368  7 14 10 144       
PJ01 -22284.205642  18448.341945 -26184.639617    217.525021 15 15 11 143       
PJ02 -30606.242731  22591.492227  23131.907636     -1.725386 16 14 11 143       
PJ03 -29477.726409  26682.508646  19113.796864     -0.797526 15 15 14 143       
PJ07 -25407.118127  33641.435864    -11.254300      0.044039 28 27  8 143       
EOF
